IRIDIUM 116             
1 43072U 17083C   25012.74183970  .00000428  00000+0  14575-3 0  9992
2 43072  86.3998 179.5230 0002178  95.5386 264.6059 14.34220308369571
IRIDIUM 130             
1 43073U 17083D   25012.84966296  .00000260  00000+0  85920-4 0  9991
2 43073  86.4005 179.7021 0001961  98.5046 261.6372 14.34219717369530
IRIDIUM 151             
1 43074U 17083E   25012.82429327  .00000174  00000+0  55111-4 0  9992
2 43074  86.4001 179.5346 0002135  90.6579 269.4861 14.34216522369555
IRIDIUM 134             
1 43075U 17083F   25012.86234830  .00000212  00000+0  68777-4 0  9995
2 43075  86.4001 179.5194 0002041  95.8830 264.2598 14.34217534369521
IRIDIUM 137             
1 43076U 17083G   25012.87503552  .00000085  00000+0  23302-4 0  9990
2 43076  86.4005 179.5963 0002552  92.7588 267.3900 14.34218237369592
IRIDIUM 141             
1 43077U 17083H   25012.86869833  .00000507  00000+0  17403-3 0  9990
2 43077  86.3999 179.4594 0001677  89.2472 270.8916 14.34216717369590
IRIDIUM 153             
1 43078U 17083J   25012.61156815  .00000502  00000+0  17230-3 0  9996
2 43078  86.4009 148.0943 0001393  84.0041 276.1313 14.34220795370665
IRIDIUM 131             
1 43079U 17083K   25012.85600604  .00000371  00000+0  12554-3 0  9991
2 43079  86.4004 179.6157 0001992  88.7881 271.3543 14.34217956369526
